{"type": "FeatureCollection", "features": [ {"type": "Feature", "properties": {"norad_id": 40115, "name": "WORLDVIEW-3 (WV-3)", "group": "resource", "lat": 42.734847865852124, "lon": -116.11349952734365, "alt_km": 606.7702402230434, "timestamp": "2025-12-10T05:46:13.454401+00:00", "meta": {"OBJECT_NAME": "WORLDVIEW-3 (WV-3)", "OBJECT_ID": "2014-048A", "EPOCH": "2025-12-09T19:27:26.278848", "MEAN_MOTION": 14.85501134, "ECCENTRICITY": 0.0004525, "INCLINATION": 97.8618, "RA_OF_ASC_NODE": 56.1278, "ARG_OF_PERICENTER": 194.6842, "MEAN_ANOMALY": 165.4242, "EPHEMERIS_TYPE": 0, "CLASSIFICATION_TYPE": "U", "NORAD_CAT_ID": 40115, "ELEMENT_SET_NO": 999, "REV_AT_EPOCH": 61380, "BSTAR": 0.00024484, "MEAN_MOTION_DOT": 2.06e-05, "MEAN_MOTION_DDOT": 0}, "tle": {"line1": "1 40115U 14048A   25343.81072082  .00002060  00000+0  24484-3 0  9995", "line2": "2 40115  97.8618  56.1278 0004525 194.6842 165.4242 14.85501134613805"}}, "geometry": {"type": "Point", "coordinates": [-116.11349952734365, 42.734847865852124]}}, {"type": "Feature", "properties": {"norad_id": 40118, "name": "GAOFEN-2", "group": "resource", "lat": -2.06902941250845, "lon": 43.69668817294848, "alt_km": 633.7961956176241, "timestamp": "2025-12-10T05:46:13.454411+00:00", "meta": {"OBJECT_NAME": "GAOFEN-2", "OBJECT_ID": "2014-049A", "EPOCH": "2025-12-09T20:02:53.223072", "MEAN_MOTION": 14.80598561, "ECCENTRICITY": 0.0008432, "INCLINATION": 98.0383, "RA_OF_ASC_NODE": 42.9984, "ARG_OF_PERICENTER": 120.783, "MEAN_ANOMALY": 239.4213, "EPHEMERIS_TYPE": 0, "CLASSIFICATION_TYPE": "U", "NORAD_CAT_ID": 40118, "ELEMENT_SET_NO": 999, "REV_AT_EPOCH": 61121, "BSTAR": 8.7001e-05, "MEAN_MOTION_DOT": 6.14e-06, "MEAN_MOTION_DDOT": 0}, "tle": {"line1": "1 40118U 14049A   25343.83533823  .00000614  00000+0  87001-4 0  9994", "line2": "2 40118  98.0383  42.9984 0008432 120.7830 239.4213 14.80598561611213"}}, "geometry": {"type": "Point", "coordinates": [43.69668817294848, -2.06902941250845]}}, {"type": "Feature", "properties": {"norad_id": 40143, "name": "YAOGAN-21", "group": "resource", "lat": -64.22893099640297, "lon": 42.787502952671815, "alt_km": 504.93433419697794, "timestamp": "2025-12-10T05:46:13.454421+00:00", "meta": {"OBJECT_NAME": "YAOGAN-21", "OBJECT_ID": "2014-053A", "EPOCH": "2025-12-09T20:35:55.597632", "MEAN_MOTION": 15.2362145, "ECCENTRICITY": 0.0009912, "INCLINATION": 97.1757, "RA_OF_ASC_NODE": 27.2954, "ARG_OF_PERICENTER": 50.3148, "MEAN_ANOMALY": 309.8962, "EPHEMERIS_TYPE": 0, "CLASSIFICATION_TYPE": "U", "NORAD_CAT_ID": 40143, "ELEMENT_SET_NO": 999, "REV_AT_EPOCH": 62610, "BSTAR": 0.00030959, "MEAN_MOTION_DOT": 7.358e-05, "MEAN_MOTION_DDOT": 0}, "tle": {"line1": "1 40143U 14053A   25343.85828238  .00007358  00000+0  30959-3 0  9997", "line2": "2 40143  97.1757  27.2954 0009912  50.3148 309.8962 15.23621450626102"}}, "geometry": {"type": "Point", "coordinates": [42.787502952671815, -64.22893099640297]}}, {"type": "Feature", "properties": {"norad_id": 40275, "name": "YAOGAN-22", "group": "resource", "lat": -19.14434434053668, "lon": -56.153833909137894, "alt_km": 1204.1331283141517, "timestamp": "2025-12-10T05:46:13.454432+00:00", "meta": {"OBJECT_NAME": "YAOGAN-22", "OBJECT_ID": "2014-063A", "EPOCH": "2025-12-09T19:37:59.621952", "MEAN_MOTION": 13.15522522, "ECCENTRICITY": 0.0005937, "INCLINATION": 100.7419, "RA_OF_ASC_NODE": 127.1963, "ARG_OF_PERICENTER": 255.3924, "MEAN_ANOMALY": 104.6529, "EPHEMERIS_TYPE": 0, "CLASSIFICATION_TYPE": "U", "NORAD_CAT_ID": 40275, "ELEMENT_SET_NO": 999, "REV_AT_EPOCH": 53491, "BSTAR": 0.00011798, "MEAN_MOTION_DOT": -2e-08, "MEAN_MOTION_DDOT": 0}, "tle": {"line1": "1 40275U 14063A   25343.81805118 -.00000002  00000+0  11798-3 0  9992", "line2": "2 40275 100.7419 127.1963 0005937 255.3924 104.6529 13.15522522534912"}}, "geometry": {"type": "Point", "coordinates": [-56.153833909137894, -19.14434434053668]}}, {"type": "Feature", "properties": {"norad_id": 40298, "name": "ASNARO", "group": "resource", "lat": 20.167489018722726, "lon": 57.52494559385818, "alt_km": 508.93002660276943, "timestamp": "2025-12-10T05:46:13.454442+00:00", "meta": {"OBJECT_NAME": "ASNARO", "OBJECT_ID": "2014-070A", "EPOCH": "2025-12-09T20:11:51.298080", "MEAN_MOTION": 15.19391601, "ECCENTRICITY": 0.0005402, "INCLINATION": 97.3647, "RA_OF_ASC_NODE": 59.8588, "ARG_OF_PERICENTER": 129.8589, "MEAN_ANOMALY": 230.3122, "EPHEMERIS_TYPE": 0, "CLASSIFICATION_TYPE": "U", "NORAD_CAT_ID": 40298, "ELEMENT_SET_NO": 999, "REV_AT_EPOCH": 61525, "BSTAR": 0.00058491, "MEAN_MOTION_DOT": 0.00012327, "MEAN_MOTION_DDOT": 0}, "tle": {"line1": "1 40298U 14070A   25343.84156595  .00012327  00000+0  58491-3 0  9999", "line2": "2 40298  97.3647  59.8588 0005402 129.8589 230.3122 15.19391601615255"}}, "geometry": {"type": "Point", "coordinates": [57.52494559385818, 20.167489018722726]}}, {"type": "Feature", "properties": {"norad_id": 40310, "name": "YAOGAN-24", "group": "resource", "lat": 21.17064480133111, "lon": 112.14950066142723, "alt_km": 647.049131319076, "timestamp": "2025-12-10T05:46:13.454451+00:00", "meta": {"OBJECT_NAME": "YAOGAN-24", "OBJECT_ID": "2014-072A", "EPOCH": "2025-12-09T19:54:45.684288", "MEAN_MOTION": 14.76167782, "ECCENTRICITY": 0.0014601, "INCLINATION": 98.1225, "RA_OF_ASC_NODE": 114.9074, "ARG_OF_PERICENTER": 146.7174, "MEAN_ANOMALY": 213.4957, "EPHEMERIS_TYPE": 0, "CLASSIFICATION_TYPE": "U", "NORAD_CAT_ID": 40310, "ELEMENT_SET_NO": 999, "REV_AT_EPOCH": 59578, "BSTAR": 0.00022128, "MEAN_MOTION_DOT": 1.479e-05, "MEAN_MOTION_DDOT": 0}, "tle": {"line1": "1 40310U 14072A   25343.82969542  .00001479  00000+0  22128-3 0  9992", "line2": "2 40310  98.1225 114.9074 0014601 146.7174 213.4957 14.76167782595789"}}, "geometry": {"type": "Point", "coordinates": [112.14950066142723, 21.17064480133111]}}, {"type": "Feature", "properties": {"norad_id": 40336, "name": "CBERS 4", "group": "resource", "lat": 51.73718735813295, "lon": -126.95082942250905, "alt_km": 767.4407356096817, "timestamp": "2025-12-10T05:46:13.454461+00:00", "meta": {"OBJECT_NAME": "CBERS 4", "OBJECT_ID": "2014-079A", "EPOCH": "2025-12-09T20:48:53.222688", "MEAN_MOTION": 14.35515101, "ECCENTRICITY": 0.0001573, "INCLINATION": 98.3307, "RA_OF_ASC_NODE": 41.9821, "ARG_OF_PERICENTER": 114.7291, "MEAN_ANOMALY": 245.4059, "EPHEMERIS_TYPE": 0, "CLASSIFICATION_TYPE": "U", "NORAD_CAT_ID": 40336, "ELEMENT_SET_NO": 999, "REV_AT_EPOCH": 57679, "BSTAR": 1.0895e-05, "MEAN_MOTION_DOT": -1.1e-07, "MEAN_MOTION_DDOT": 0}, "tle": {"line1": "1 40336U 14079A   25343.86728267 -.00000011  00000+0  10895-4 0  9999", "line2": "2 40336  98.3307  41.9821 0001573 114.7291 245.4059 14.35515101576793"}}, "geometry": {"type": "Point", "coordinates": [-126.95082942250905, 51.73718735813295]}}, {"type": "Feature", "properties": {"norad_id": 40362, "name": "YAOGAN-26", "group": "resource", "lat": -49.41623229601566, "lon": 156.6788511279524, "alt_km": 459.9628364724931, "timestamp": "2025-12-10T05:46:13.454472+00:00", "meta": {"OBJECT_NAME": "YAOGAN-26", "OBJECT_ID": "2014-088A", "EPOCH": "2025-12-09T20:58:23.674368", "MEAN_MOTION": 15.39139534, "ECCENTRICITY": 0.0006678, "INCLINATION": 97.0646, "RA_OF_ASC_NODE": 344.6497, "ARG_OF_PERICENTER": 37.0042, "MEAN_ANOMALY": 323.1664, "EPHEMERIS_TYPE": 0, "CLASSIFICATION_TYPE": "U", "NORAD_CAT_ID": 40362, "ELEMENT_SET_NO": 999, "REV_AT_EPOCH": 60850, "BSTAR": 0.00075155, "MEAN_MOTION_DOT": 0.00029168, "MEAN_MOTION_DDOT": 0}, "tle": {"line1": "1 40362U 14088A   25343.87388512  .00029168  00000+0  75155-3 0  9996", "line2": "2 40362  97.0646 344.6497 0006678  37.0042 323.1664 15.39139534608506"}}, "geometry": {"type": "Point", "coordinates": [156.6788511279524, -49.41623229601566]}}, {"type": "Feature", "properties": {"norad_id": 40376, "name": "SMAP", "group": "resource", "lat": 77.30979084242668, "lon": -50.40148800024238, "alt_km": 674.2934902047064, "timestamp": "2025-12-10T05:46:13.454482+00:00", "meta": {"OBJECT_NAME": "SMAP", "OBJECT_ID": "2015-003A", "EPOCH": "2025-12-09T19:33:31.818240", "MEAN_MOTION": 14.63339713, "ECCENTRICITY": 0.0001204, "INCLINATION": 98.1291, "RA_OF_ASC_NODE": 348.5809, "ARG_OF_PERICENTER": 88.6814, "MEAN_ANOMALY": 271.4526, "EPHEMERIS_TYPE": 0, "CLASSIFICATION_TYPE": "U", "NORAD_CAT_ID": 40376, "ELEMENT_SET_NO": 999, "REV_AT_EPOCH": 57992, "BSTAR": 0.00020688, "MEAN_MOTION_DOT": 1.021e-05, "MEAN_MOTION_DDOT": 0}, "tle": {"line1": "1 40376U 15003A   25343.81495160  .00001021  00000+0  20688-3 0  9990", "line2": "2 40376  98.1291 348.5809 0001204  88.6814 271.4526 14.63339713579920"}}, "geometry": {"type": "Point", "coordinates": [-50.40148800024238, 77.30979084242668]}}, {"type": "Feature", "properties": {"norad_id": 40536, "name": "KOMPSAT-3A", "group": "resource", "lat": 50.770061609829185, "lon": 147.96173870921888, "alt_km": 427.16799868093494, "timestamp": "2025-12-10T05:46:13.454492+00:00", "meta": {"OBJECT_NAME": "KOMPSAT-3A", "OBJECT_ID": "2015-014A", "EPOCH": "2025-12-09T21:26:15.491904", "MEAN_MOTION": 15.43780872, "ECCENTRICITY": 0.000458, "INCLINATION": 97.6792, "RA_OF_ASC_NODE": 318.0827, "ARG_OF_PERICENTER": 132.6662, "MEAN_ANOMALY": 227.4972, "EPHEMERIS_TYPE": 0, "CLASSIFICATION_TYPE": "U", "NORAD_CAT_ID": 40536, "ELEMENT_SET_NO": 999, "REV_AT_EPOCH": 59251, "BSTAR": 0.00064975, "MEAN_MOTION_DOT": 0.00029386, "MEAN_MOTION_DDOT": 0}, "tle": {"line1": "1 40536U 15014A   25343.89323486  .00029386  00000+0  64975-3 0  9990", "line2": "2 40536  97.6792 318.0827 0004580 132.6662 227.4972 15.43780872592512"}}, "geometry": {"type": "Point", "coordinates": [147.96173870921888, 50.770061609829185]}}]}